[["observe", {"vessel_name": "#autoLOC_501232", "vessel_type": "VesselSituation.pre_launch", "vessel_situation": "VesselSituation.pre_launch", "mission_time": 1762372916.687087, "universal_time": 560.5599999997802, "current_body": "Kerbin", "position": {"x": 0.0, "y": 0.0, "z": 0.0}, "velocity": {"x": 0.0, "y": 0.0, "z": 0.0}, "altitude": 85.39882433030289, "surface_altitude": 12.941502663190477, "speed": 0.0, "vertical_speed": 0, "g_force": 0, "orbit_parameters": {"apoapsis_altitude": 85.3988253128482, "periapsis_altitude": -598435.1637747649, "inclination": 0.0016965963190505974, "eccentricity": 0.9947981862747757, "period": 0, "time_to_apoapsis": 0, "time_to_periapsis": 0}, "resources": {"LiquidFuel": {"amount": 8280.0, "max": 8280.0}, "ElectricCharge": {"amount": 950.0, "max": 950.0}}, "vessel_status": {"mass": 128655.0, "dry_mass": 0, "thrust": 0.0, "available_thrust": 0.0, "max_thrust": 0.0, "specific_impulse": 0, "control_state": {"throttle": 0.0, "sas": false, "rcs": false, "gear": false, "lights": false, "brakes": false}}, "mechjeb_status": {"api_ready": true, "ascent_status": ""}, "part_status": {"part_count": 73, "stage_count": 0, "current_stage": 8}, "nearby_vessels": [], "comprehensive_telemetry": {"timestamp": 1762372918.2472599, "basic_vessel": {"name": "#autoLOC_501232", "type": "VesselType.ship", "situation": "VesselSituation.pre_launch", "mass": 128655.0, "dry_mass": 36135.0, "crew_count": 3, "crew_capacity": 3, "biome": "Shores", "recoverable": true, "met": 0.0}, "performance": {"thrust": 0.0, "max_thrust": 0.0, "max_vacuum_thrust": 0.0, "specific_impulse": 0.0, "kerbin_sea_level_specific_impulse": 0.0, "vacuum_specific_impulse": 0.0}, "torque": {"available_control_surface_torque": [[0.0012134631361959691, 0.002413690083358233, 0.0012002267196324634], [-0.0012125407309326874, -0.0024089188741527323, -0.0011963780076661504]], "available_engine_torque": [[0.0, 0.0, 0.0], [0.0, 0.0, 0.0]], "available_rcs_torque": [[0.0, 0.0, 0.0], [0.0, 0.0, 0.0]], "available_reaction_wheel_torque": [[15000.0, 15000.0, 15000.0], [-15000.0, -15000.0, -15000.0]], "available_thrust": 0.0, "available_torque": [[15000.001185026718, 15000.002376797795, 15000.001191771004], [-15000.001185422236, -15000.002370817072, -15000.001185394804]]}, "position_velocity": {"position_vessel": [-0.0, 0.0, 0.0], "velocity_vessel": [0.0, 0.0, 0.0], "position_orbital": [0.0, -0.0, 0.0], "velocity_orbital": [0.0, -0.0, 0.0], "position_surface": [0.0, 0.0, -0.0], "velocity_surface": [0.0, 0.0, -0.0], "speed": 0.0, "horizontal_speed": 0.0, "vertical_speed": 0.0, "equivalent_air_speed": 0.0034381928853690624, "true_air_speed": 0.0036071124486625195, "terminal_velocity": 381.945556640625}, "altitude_location": {"mean_altitude": 85.39882406033576, "surface_altitude": 12.941501021152362, "bedrock_altitude": 12.941501020570286, "latitude": -0.09720780981610817, "longitude": -74.55767682606648, "elevation": 72.45732249494176}, "aerodynamics": {"atmosphere_density": 1.1129539012908936, "dynamic_pressure": 7.2708367042650934e-06, "static_pressure": 100049.1953125, "static_pressure_at_msl": 101325.0, "drag": [-0.00018235563256585764, -1.636072354858276e-07, 1.2669006564441237e-07], "lift": [-2.2877451516318824e-09, 1.7827367446445114e-06, 1.237910067165144e-08], "mach": 1.0182669029745739e-05, "drag_coefficient": null, "lift_coefficient": null, "ballistic_coefficient": null, "reynolds_number": null}, "orientation": {"heading": 270.4005432128906, "pitch": 89.95574951171875, "roll": -90.0, "direction": [0.9999996088601395, 5.386136321620424e-05, -0.0008828241737258584], "rotation": [-0.49846929124145983, -0.4980532511821189, -0.5014991781331126, 0.5019661521793507], "angle_of_attack": 0.09630236029624939, "sideslip_angle": 0.0029477407224476337}, "flight_dynamics": {"g_force": 0.9948546886444092, "center_of_mass": [0.0, 0.0, -0.0], "aerodynamic_force": [-0.00017822141169340083, -1.6715033467404443e-06, 1.7201628479407568e-06], "thrust_specific_fuel_consumption": null, "stall_fraction": null}, "reference_vectors": {"prograde": [2.064991476596889e-05, -1.212210131644291e-08, 0.9999999997867908], "retrograde": [-2.064991476596889e-05, 1.212210131644291e-08, -0.9999999997867908], "normal": [1.7629127324614302e-16, 1.0, 1.6008243309932613e-08], "anti_normal": [-1.4349307332628403e-13, -0.9999999999999999, -1.9265177889603302e-08], "radial": [0.9999999997872037, 4.915420284343219e-13, -2.0630002831367733e-05], "anti_radial": [-0.9999999997874389, -1.5657245465428016e-13, 2.061855367058163e-05]}, "reference_frames": {"reference_frames": {"vessel": {"position": [-0.0, 0.0, 0.0], "velocity": [0.0, 0.0, 0.0], "description": "Vessel-relative coordinates (X=right, Y=forward, Z=up)"}, "orbital": {"position": [0.0, -0.0, 0.0], "velocity": [0.0, -0.0, 0.0], "description": "Orbital coordinates (X=anti-radial, Y=prograde, Z=normal)"}, "surface": {"position": [0.0, 0.0, 0.0], "velocity": [0.0, 0.0, 0.0], "description": "Surface coordinates (X=zenith, Y=north, Z=east)"}}, "coordinate_systems": {"vessel_available": true, "orbital_available": true, "surface_available": true}}, "orbital": {"semi_major_axis": 300825.1175120346, "semi_minor_axis": 30643.68376280341, "eccentricity": 0.9947981863121615, "inclination": 0.0016965963193302173, "longitude_of_ascending_node": 2.004056515641704, "argument_of_periapsis": 1.5708070363673279, "mean_anomaly": 3.1415884310644793, "eccentric_anomaly": 3.1415905368216195, "true_anomaly": 3.1415925454867404, "apoapsis": 600085.3988253193, "periapsis": 1564.8361869693201, "apoapsis_altitude": 85.39882546442095, "periapsis_altitude": -598435.1637528692, "period": 551.6520759981389, "orbital_speed": 0.0, "speed": 174.96719357311443, "radius": 600085.3988247253, "time_to_apoapsis": 0.00037009521747677354, "time_to_periapsis": 275.8264080965233, "time_to_soi_change": NaN, "epoch": 561.7399999997791, "mean_anomaly_at_epoch": 3.1415884382937147, "body_name": "Kerbin"}, "control": {"pitch": 0.0, "yaw": 0.0, "roll": 0.0, "throttle": 0.0, "forward": -0.0, "up": 0.0, "right": -0.0, "sas": false, "rcs": false, "brakes": false, "gear": false, "lights": false, "abort": false, "custom_axis01": 0.0, "custom_axis02": 0.0, "custom_axis03": 0.0, "custom_axis04": 0.0, "wheel_steering": 0.0, "wheel_throttle": 0.0, "state": "ControlState.full", "source": "ControlSource.kerbal", "current_stage": 8, "stage_lock": false, "sas_mode": "SASMode.stability_assist", "input_mode": "ControlInputMode.additive"}, "resources": {"ElectricCharge": {"amount": 950.0, "max": 950.0, "flow_mode": null, "density": null}, "MonoPropellant": {"amount": 30.0, "max": 30.0, "flow_mode": null, "density": null}, "Ablator": {"amount": 400.0, "max": 800.0, "flow_mode": null, "density": null}, "LiquidFuel": {"amount": 8280.0, "max": 8280.0, "flow_mode": null, "density": null}, "Oxidizer": {"amount": 10120.0, "max": 10120.0, "flow_mode": null, "density": null}}}, "execution_time": 0.8861069679260254}]]